[{"OBJECT_NAME":"STARLINK-3885","OBJECT_ID":"2022-049N","EPOCH":"2026-02-19T15:39:19.256544","MEAN_MOTION":15.08841949,"ECCENTRICITY":0.000126,"INCLINATION":53.2172,"RA_OF_ASC_NODE":130.0935,"ARG_OF_PERICENTER":86.9608,"MEAN_ANOMALY":273.1528,"EPHEMERIS_TYPE":0,"CLASSIFICATION_TYPE":"U","NORAD_CAT_ID":52463,"ELEMENT_SET_NO":999,"REV_AT_EPOCH":20966,"BSTAR":1.0232909e-5,"MEAN_MOTION_DOT":-1.25e-6,"MEAN_MOTION_DDOT":0},{"OBJECT_NAME":"STARLINK-3904","OBJECT_ID":"2022-049P","EPOCH":"2026-02-19T15:43:17.848416","MEAN_MOTION":15.0884185,"ECCENTRICITY":0.00011234,"INCLINATION":53.216,"RA_OF_ASC_NODE":140.0829,"ARG_OF_PERICENTER":95.3675,"MEAN_ANOMALY":264.7445,"EPHEMERIS_TYPE":0,"CLASSIFICATION_TYPE":"U","NORAD_CAT_ID":52464,"ELEMENT_SET_NO":999,"REV_AT_EPOCH":20952,"BSTAR":-7.876675e-6,"MEAN_MOTION_DOT":-4.13e-6,"MEAN_MOTION_DDOT":0},{"OBJECT_NAME":"STARLINK-3863","OBJECT_ID":"2022-049Q","EPOCH":"2026-02-19T12:23:15.033408","MEAN_MOTION":15.08838708,"ECCENTRICITY":0.0001226,"INCLINATION":53.2174,"RA_OF_ASC_NODE":130.7076,"ARG_OF_PERICENTER":88.2576,"MEAN_ANOMALY":271.8556,"EPHEMERIS_TYPE":0,"CLASSIFICATION_TYPE":"U","NORAD_CAT_ID":52465,"ELEMENT_SET_NO":999,"REV_AT_EPOCH":20964,"BSTAR":5.575e-5,"MEAN_MOTION_DOT":5.99e-6,"MEAN_MOTION_DDOT":0},{"OBJECT_NAME":"STARLINK-3873","OBJECT_ID":"2022-049S","EPOCH":"2026-02-19T12:21:55.428768","MEAN_MOTION":15.08844842,"ECCENTRICITY":0.0001219,"INCLINATION":53.2175,"RA_OF_ASC_NODE":140.7114,"ARG_OF_PERICENTER":95.6158,"MEAN_ANOMALY":264.4973,"EPHEMERIS_TYPE":0,"CLASSIFICATION_TYPE":"U","NORAD_CAT_ID":52467,"ELEMENT_SET_NO":999,"REV_AT_EPOCH":20950,"BSTAR":3.8731e-5,"MEAN_MOTION_DOT":3.29e-6,"MEAN_MOTION_DDOT":0},{"OBJECT_NAME":"STARLINK-3864","OBJECT_ID":"2022-049T","EPOCH":"2026-02-19T15:11:30.259104","MEAN_MOTION":15.08840858,"ECCENTRICITY":0.0001149,"INCLINATION":53.2171,"RA_OF_ASC_NODE":140.1803,"ARG_OF_PERICENTER":78.8935,"MEAN_ANOMALY":281.2186,"EPHEMERIS_TYPE":0,"CLASSIFICATION_TYPE":"U","NORAD_CAT_ID":52468,"ELEMENT_SET_NO":999,"REV_AT_EPOCH":20952,"BSTAR":1.5586e-5,"MEAN_MOTION_DOT":-4.0e-7,"MEAN_MOTION_DDOT":0},{"OBJECT_NAME":"STARLINK-3828","OBJECT_ID":"2022-049U","EPOCH":"2026-02-19T12:11:19.876416","MEAN_MOTION":15.08841959,"ECCENTRICITY":0.00012765,"INCLINATION":53.2171,"RA_OF_ASC_NODE":140.7478,"ARG_OF_PERICENTER":98.389,"MEAN_ANOMALY":261.7247,"EPHEMERIS_TYPE":0,"CLASSIFICATION_TYPE":"U","NORAD_CAT_ID":52469,"ELEMENT_SET_NO":999,"REV_AT_EPOCH":20950,"BSTAR":-3.59168e-5,"MEAN_MOTION_DOT":-8.59e-6,"MEAN_MOTION_DDOT":0},{"OBJECT_NAME":"STARLINK-3859","OBJECT_ID":"2022-049V","EPOCH":"2026-02-19T15:00:54.970272","MEAN_MOTION":15.08844955,"ECCENTRICITY":0.0001136,"INCLINATION":53.2174,"RA_OF_ASC_NODE":140.2102,"ARG_OF_PERICENTER":107.1878,"MEAN_ANOMALY":252.9239,"EPHEMERIS_TYPE":0,"CLASSIFICATION_TYPE":"U","NORAD_CAT_ID":52470,"ELEMENT_SET_NO":999,"REV_AT_EPOCH":20952,"BSTAR":0.00012439,"MEAN_MOTION_DOT":1.693e-5,"MEAN_MOTION_DDOT":0},{"OBJECT_NAME":"STARLINK-3862","OBJECT_ID":"2022-049W","EPOCH":"2026-02-19T15:18:10.535616","MEAN_MOTION":15.08844626,"ECCENTRICITY":0.0001322,"INCLINATION":53.2172,"RA_OF_ASC_NODE":140.1706,"ARG_OF_PERICENTER":84.2931,"MEAN_ANOMALY":275.8211,"EPHEMERIS_TYPE":0,"CLASSIFICATION_TYPE":"U","NORAD_CAT_ID":52471,"ELEMENT_SET_NO":999,"REV_AT_EPOCH":20952,"BSTAR":6.0452e-5,"MEAN_MOTION_DOT":6.74e-6,"MEAN_MOTION_DDOT":0},{"OBJECT_NAME":"STARLINK-3881","OBJECT_ID":"2022-049X","EPOCH":"2026-02-19T14:55:36.425568","MEAN_MOTION":15.08838251,"ECCENTRICITY":0.0001306,"INCLINATION":53.2174,"RA_OF_ASC_NODE":140.2258,"ARG_OF_PERICENTER":101.19,"MEAN_ANOMALY":258.9239,"EPHEMERIS_TYPE":0,"CLASSIFICATION_TYPE":"U","NORAD_CAT_ID":52472,"ELEMENT_SET_NO":999,"REV_AT_EPOCH":20952,"BSTAR":-1.1332e-6,"MEAN_MOTION_DOT":-3.06e-6,"MEAN_MOTION_DDOT":0},{"OBJECT_NAME":"STARLINK-3879","OBJECT_ID":"2022-049Y","EPOCH":"2026-02-19T15:06:12.183552","MEAN_MOTION":15.08842723,"ECCENTRICITY":0.000136,"INCLINATION":53.2176,"RA_OF_ASC_NODE":140.1968,"ARG_OF_PERICENTER":89.6856,"MEAN_ANOMALY":270.4292,"EPHEMERIS_TYPE":0,"CLASSIFICATION_TYPE":"U","NORAD_CAT_ID":52473,"ELEMENT_SET_NO":999,"REV_AT_EPOCH":20952,"BSTAR":6.3099e-5,"MEAN_MOTION_DOT":7.17e-6,"MEAN_MOTION_DDOT":0},{"OBJECT_NAME":"STARLINK-3855","OBJECT_ID":"2022-049Z","EPOCH":"2026-02-19T22:00:03.000096","MEAN_MOTION":15.56862743,"ECCENTRICITY":0.00012255,"INCLINATION":53.2172,"RA_OF_ASC_NODE":124.9131,"ARG_OF_PERICENTER":77.563,"MEAN_ANOMALY":227.2315,"EPHEMERIS_TYPE":0,"CLASSIFICATION_TYPE":"U","NORAD_CAT_ID":52474,"ELEMENT_SET_NO":999,"REV_AT_EPOCH":579,"BSTAR":0.015379831,"MEAN_MOTION_DOT":0.01237639,"MEAN_MOTION_DDOT":0},{"OBJECT_NAME":"STARLINK-3882","OBJECT_ID":"2022-049AA","EPOCH":"2026-02-19T10:41:16.913760","MEAN_MOTION":15.08839986,"ECCENTRICITY":0.00016114,"INCLINATION":53.2175,"RA_OF_ASC_NODE":141.2479,"ARG_OF_PERICENTER":63.6254,"MEAN_ANOMALY":296.4903,"EPHEMERIS_TYPE":0,"CLASSIFICATION_TYPE":"U","NORAD_CAT_ID":52475,"ELEMENT_SET_NO":999,"REV_AT_EPOCH":20949,"BSTAR":5.7070188e-5,"MEAN_MOTION_DOT":6.2e-6,"MEAN_MOTION_DDOT":0},{"OBJECT_NAME":"STARLINK-3835","OBJECT_ID":"2022-049AB","EPOCH":"2026-02-19T14:15:56.958336","MEAN_MOTION":15.08848439,"ECCENTRICITY":0.0001245,"INCLINATION":53.2171,"RA_OF_ASC_NODE":130.5936,"ARG_OF_PERICENTER":97.0725,"MEAN_ANOMALY":263.0409,"EPHEMERIS_TYPE":0,"CLASSIFICATION_TYPE":"U","NORAD_CAT_ID":52476,"ELEMENT_SET_NO":999,"REV_AT_EPOCH":21089,"BSTAR":-4.5846e-5,"MEAN_MOTION_DOT":-1.018e-5,"MEAN_MOTION_DDOT":0},{"OBJECT_NAME":"STARLINK-3860","OBJECT_ID":"2022-049AC","EPOCH":"2026-02-19T10:42:34.357536","MEAN_MOTION":15.0883687,"ECCENTRICITY":0.00010854,"INCLINATION":53.2165,"RA_OF_ASC_NODE":131.0164,"ARG_OF_PERICENTER":76.8949,"MEAN_ANOMALY":283.2164,"EPHEMERIS_TYPE":0,"CLASSIFICATION_TYPE":"U","NORAD_CAT_ID":52477,"ELEMENT_SET_NO":999,"REV_AT_EPOCH":21087,"BSTAR":-9.077982e-6,"MEAN_MOTION_DOT":-4.32e-6,"MEAN_MOTION_DDOT":0},{"OBJECT_NAME":"STARLINK-3825","OBJECT_ID":"2022-049AD","EPOCH":"2026-02-19T11:34:14.201184","MEAN_MOTION":15.08838898,"ECCENTRICITY":0.00011463,"INCLINATION":53.217,"RA_OF_ASC_NODE":140.8579,"ARG_OF_PERICENTER":88.7935,"MEAN_ANOMALY":271.3188,"EPHEMERIS_TYPE":0,"CLASSIFICATION_TYPE":"U","NORAD_CAT_ID":52478,"ELEMENT_SET_NO":999,"REV_AT_EPOCH":21074,"BSTAR":6.436515e-6,"MEAN_MOTION_DOT":-1.85e-6,"MEAN_MOTION_DDOT":0},{"OBJECT_NAME":"STARLINK-3878","OBJECT_ID":"2022-049AE","EPOCH":"2026-02-19T15:07:31.060704","MEAN_MOTION":15.0884653,"ECCENTRICITY":0.0001311,"INCLINATION":53.2163,"RA_OF_ASC_NODE":130.1965,"ARG_OF_PERICENTER":80.325,"MEAN_ANOMALY":279.789,"EPHEMERIS_TYPE":0,"CLASSIFICATION_TYPE":"U","NORAD_CAT_ID":52479,"ELEMENT_SET_NO":999,"REV_AT_EPOCH":21090,"BSTAR":6.2645e-5,"MEAN_MOTION_DOT":7.09e-6,"MEAN_MOTION_DDOT":0},{"OBJECT_NAME":"STARLINK-3839","OBJECT_ID":"2022-049AF","EPOCH":"2026-02-19T16:15:05.715072","MEAN_MOTION":15.08845179,"ECCENTRICITY":0.00013662,"INCLINATION":53.217,"RA_OF_ASC_NODE":139.9838,"ARG_OF_PERICENTER":115.4831,"MEAN_ANOMALY":244.6303,"EPHEMERIS_TYPE":0,"CLASSIFICATION_TYPE":"U","NORAD_CAT_ID":52480,"ELEMENT_SET_NO":999,"REV_AT_EPOCH":20953,"BSTAR":4.5154578e-5,"MEAN_MOTION_DOT":4.31e-6,"MEAN_MOTION_DDOT":0}]
