STARLINK-3885           
1 52463U 22049N   26050.65230621 -.00000125  00000+0  10233-4 0  9996
2 52463  53.2172 130.0935 0001260  86.9608 273.1528 15.08841949209669
STARLINK-3904           
1 52464U 22049P   26050.65506769 -.00000413  00000+0 -78767-5 0  9994
2 52464  53.2160 140.0829 0001123  95.3675 264.7445 15.08841850209526
STARLINK-3863           
1 52465U 22049Q   26050.51614622  .00000599  00000+0  55750-4 0  9997
2 52465  53.2174 130.7076 0001226  88.2576 271.8556 15.08838708209640
STARLINK-3873           
1 52467U 22049S   26050.51522487  .00000329  00000+0  38731-4 0  9997
2 52467  53.2175 140.7114 0001219  95.6158 264.4973 15.08844842209509
STARLINK-3864           
1 52468U 22049T   26050.63298911 -.00000040  00000+0  15586-4 0  9997
2 52468  53.2171 140.1803 0001149  78.8935 281.2186 15.08840858209521
STARLINK-3828           
1 52469U 22049U   26050.50786894 -.00000859  00000+0 -35917-4 0  9995
2 52469  53.2171 140.7478 0001276  98.3890 261.7247 15.08841959209506
STARLINK-3859           
1 52470U 22049V   26050.62563623  .00001693  00000+0  12439-3 0  9991
2 52470  53.2174 140.2102 0001136 107.1878 252.9239 15.08844955209524
STARLINK-3862           
1 52471U 22049W   26050.63762194  .00000674  00000+0  60452-4 0  9994
2 52471  53.2172 140.1706 0001322  84.2931 275.8211 15.08844626209523
STARLINK-3881           
1 52472U 22049X   26050.62194937 -.00000306  00000+0 -11332-5 0  9996
2 52472  53.2174 140.2258 0001306 101.1900 258.9239 15.08838251209525
STARLINK-3879           
1 52473U 22049Y   26050.62930768  .00000717  00000+0  63099-4 0  9997
2 52473  53.2176 140.1968 0001360  89.6856 270.4292 15.08842723209522
STARLINK-3855           
1 52474U 22049Z   26050.91670139  .01237639  00000+0  15380-1 0  9996
2 52474  53.2172 124.9131 0001225  77.5630 227.2315 15.56862743  5793
STARLINK-3882           
1 52475U 22049AA  26050.44533465  .00000620  00000+0  57070-4 0  9997
2 52475  53.2175 141.2479 0001611  63.6254 296.4903 15.08839986209495
STARLINK-3835           
1 52476U 22049AB  26050.59440924 -.00001018  00000+0 -45846-4 0  9993
2 52476  53.2171 130.5936 0001245  97.0725 263.0409 15.08848439210898
STARLINK-3860           
1 52477U 22049AC  26050.44623099 -.00000432  00000+0 -90780-5 0  9991
2 52477  53.2165 131.0164 0001085  76.8949 283.2164 15.08836870210872
STARLINK-3825           
1 52478U 22049AD  26050.48210881 -.00000185  00000+0  64365-5 0  9991
2 52478  53.2170 140.8579 0001146  88.7935 271.3188 15.08838898210744
STARLINK-3878           
1 52479U 22049AE  26050.63022061  .00000709  00000+0  62645-4 0  9999
2 52479  53.2163 130.1965 0001311  80.3250 279.7890 15.08846530210902
STARLINK-3839           
1 52480U 22049AF  26050.67714948  .00000431  00000+0  45155-4 0  9996
2 52480  53.2170 139.9838 0001366 115.4831 244.6303 15.08845179209538
